[
  {
    "OBJECT_NAME": "STARLINK-3339",
    "OBJECT_ID": "22001T",
    "EPOCH": "2025-11-11T07:31:10.909344",
    "MEAN_MOTION": 15.0883954,
    "ECCENTRICITY": 0.0001386,
    "INCLINATION": 53.2192,
    "RA_OF_ASC_NODE": 340.5331,
    "ARG_OF_PERICENTER": 96.3973,
    "MEAN_ANOMALY": 263.7177,
    "EPHEMERIS_TYPE": 0,
    "CLASSIFICATION_TYPE": "U",
    "NORAD_CAT_ID": 50820,
    "ELEMENT_SET_NO": 999,
    "REV_AT_EPOCH": 21253,
    "BSTAR": 3.2196e-05,
    "MEAN_MOTION_DOT": 2.24e-06,
    "MEAN_MOTION_DDOT": 0.0,
    "TLE_LINE1": "1 50820U 22001T   25315.31332071  .00000224  00000+0  32196-4 0  9998",
    "TLE_LINE2": "2 50820  53.2192 340.5331 0001386  96.3973 263.7177 15.08839540212532",
    "COMMENT": "Grouped by shell and plane from TLE"
  },
  {
    "OBJECT_NAME": "STARLINK-3346",
    "OBJECT_ID": "22001U",
    "EPOCH": "2025-11-11T06:54:03.755808",
    "MEAN_MOTION": 15.08841954,
    "ECCENTRICITY": 0.0001431,
    "INCLINATION": 53.2178,
    "RA_OF_ASC_NODE": 340.5333,
    "ARG_OF_PERICENTER": 81.9537,
    "MEAN_ANOMALY": 278.1618,
    "EPHEMERIS_TYPE": 0,
    "CLASSIFICATION_TYPE": "U",
    "NORAD_CAT_ID": 50821,
    "ELEMENT_SET_NO": 999,
    "REV_AT_EPOCH": 21253,
    "BSTAR": 7.890100000000001e-05,
    "MEAN_MOTION_DOT": 9.68e-06,
    "MEAN_MOTION_DDOT": 0.0,
    "TLE_LINE1": "1 50821U 22001U   25315.28754347  .00000968  00000+0  78901-4 0  9998",
    "TLE_LINE2": "2 50821  53.2178 340.5333 0001431  81.9537 278.1618 15.08841954212538",
    "COMMENT": "Grouped by shell and plane from TLE"
  },
  {
    "OBJECT_NAME": "STARLINK-3343",
    "OBJECT_ID": "22001V",
    "EPOCH": "2025-11-11T07:20:34.871424",
    "MEAN_MOTION": 15.08836585,
    "ECCENTRICITY": 0.0001402,
    "INCLINATION": 53.2178,
    "RA_OF_ASC_NODE": 340.5652,
    "ARG_OF_PERICENTER": 98.8996,
    "MEAN_ANOMALY": 261.2155,
    "EPHEMERIS_TYPE": 0,
    "CLASSIFICATION_TYPE": "U",
    "NORAD_CAT_ID": 50822,
    "ELEMENT_SET_NO": 999,
    "REV_AT_EPOCH": 21253,
    "BSTAR": 2.8437000000000002e-05,
    "MEAN_MOTION_DOT": 1.65e-06,
    "MEAN_MOTION_DDOT": 0.0,
    "TLE_LINE1": "1 50822U 22001V   25315.30595916  .00000165  00000+0  28437-4 0  9995",
    "TLE_LINE2": "2 50822  53.2178 340.5652 0001402  98.8996 261.2155 15.08836585212530",
    "COMMENT": "Grouped by shell and plane from TLE"
  },
  {
    "OBJECT_NAME": "STARLINK-3334",
    "OBJECT_ID": "22001W",
    "EPOCH": "2025-11-11T06:32:52.989792",
    "MEAN_MOTION": 15.08847693,
    "ECCENTRICITY": 0.0001315,
    "INCLINATION": 53.2178,
    "RA_OF_ASC_NODE": 340.7144,
    "ARG_OF_PERICENTER": 86.0023,
    "MEAN_ANOMALY": 274.112,
    "EPHEMERIS_TYPE": 0,
    "CLASSIFICATION_TYPE": "U",
    "NORAD_CAT_ID": 50823,
    "ELEMENT_SET_NO": 999,
    "REV_AT_EPOCH": 21253,
    "BSTAR": 2.9972e-05,
    "MEAN_MOTION_DOT": 1.89e-06,
    "MEAN_MOTION_DDOT": 0.0,
    "TLE_LINE1": "1 50823U 22001W   25315.27283553  .00000189  00000+0  29972-4 0  9994",
    "TLE_LINE2": "2 50823  53.2178 340.7144 0001315  86.0023 274.1120 15.08847693212539",
    "COMMENT": "Grouped by shell and plane from TLE"
  },
  {
    "OBJECT_NAME": "STARLINK-3332",
    "OBJECT_ID": "22001Y",
    "EPOCH": "2025-11-11T07:25:52.985856",
    "MEAN_MOTION": 15.08839225,
    "ECCENTRICITY": 0.0001297,
    "INCLINATION": 53.2178,
    "RA_OF_ASC_NODE": 340.5478,
    "ARG_OF_PERICENTER": 101.1993,
    "MEAN_ANOMALY": 258.9146,
    "EPHEMERIS_TYPE": 0,
    "CLASSIFICATION_TYPE": "U",
    "NORAD_CAT_ID": 50825,
    "ELEMENT_SET_NO": 999,
    "REV_AT_EPOCH": 21253,
    "BSTAR": 6.7546e-05,
    "MEAN_MOTION_DOT": 7.87e-06,
    "MEAN_MOTION_DDOT": 0.0,
    "TLE_LINE1": "1 50825U 22001Y   25315.30964104  .00000787  00000+0  67546-4 0  9991",
    "TLE_LINE2": "2 50825  53.2178 340.5478 0001297 101.1993 258.9146 15.08839225212533",
    "COMMENT": "Grouped by shell and plane from TLE"
  },
  {
    "OBJECT_NAME": "STARLINK-3329",
    "OBJECT_ID": "22001AA",
    "EPOCH": "2025-11-11T06:06:23.442336",
    "MEAN_MOTION": 15.08842403,
    "ECCENTRICITY": 0.0001267,
    "INCLINATION": 53.2173,
    "RA_OF_ASC_NODE": 340.7966,
    "ARG_OF_PERICENTER": 85.9051,
    "MEAN_ANOMALY": 274.2086,
    "EPHEMERIS_TYPE": 0,
    "CLASSIFICATION_TYPE": "U",
    "NORAD_CAT_ID": 50827,
    "ELEMENT_SET_NO": 999,
    "REV_AT_EPOCH": 21252,
    "BSTAR": 0.00017005999999999998,
    "MEAN_MOTION_DOT": 2.42e-05,
    "MEAN_MOTION_DDOT": 0.0,
    "TLE_LINE1": "1 50827U 22001AA  25315.25443799  .00002420  00000+0  17006-3 0  9990",
    "TLE_LINE2": "2 50827  53.2173 340.7966 0001267  85.9051 274.2086 15.08842403212520",
    "COMMENT": "Grouped by shell and plane from TLE"
  },
  {
    "OBJECT_NAME": "STARLINK-3290",
    "OBJECT_ID": "22001AB",
    "EPOCH": "2025-11-11T07:21:57.345408",
    "MEAN_MOTION": 15.08824522,
    "ECCENTRICITY": 0.0001164,
    "INCLINATION": 53.2179,
    "RA_OF_ASC_NODE": 340.4543,
    "ARG_OF_PERICENTER": 74.4132,
    "MEAN_ANOMALY": 285.6988,
    "EPHEMERIS_TYPE": 0,
    "CLASSIFICATION_TYPE": "U",
    "NORAD_CAT_ID": 50828,
    "ELEMENT_SET_NO": 999,
    "REV_AT_EPOCH": 21238,
    "BSTAR": 0.0,
    "MEAN_MOTION_DOT": -1.613e-05,
    "MEAN_MOTION_DDOT": 0.0,
    "TLE_LINE1": "1 50828U 22001AB  25315.30691372 -.00001613  00000+0 -83343-4 0  9992",
    "TLE_LINE2": "2 50828  53.2179 340.4543 0001164  74.4132 285.6988 15.08824522212387",
    "COMMENT": "Grouped by shell and plane from TLE"
  },
  {
    "OBJECT_NAME": "STARLINK-3294",
    "OBJECT_ID": "22001AC",
    "EPOCH": "2025-11-11T06:16:59.292768",
    "MEAN_MOTION": 15.08839545,
    "ECCENTRICITY": 0.000144,
    "INCLINATION": 53.2186,
    "RA_OF_ASC_NODE": 340.7642,
    "ARG_OF_PERICENTER": 94.0958,
    "MEAN_ANOMALY": 266.0199,
    "EPHEMERIS_TYPE": 0,
    "CLASSIFICATION_TYPE": "U",
    "NORAD_CAT_ID": 50829,
    "ELEMENT_SET_NO": 999,
    "REV_AT_EPOCH": 21252,
    "BSTAR": 7.3227e-05,
    "MEAN_MOTION_DOT": 8.78e-06,
    "MEAN_MOTION_DDOT": 0.0,
    "TLE_LINE1": "1 50829U 22001AC  25315.26179737  .00000878  00000+0  73227-4 0  9994",
    "TLE_LINE2": "2 50829  53.2186 340.7642 0001440  94.0958 266.0199 15.08839545212524",
    "COMMENT": "Grouped by shell and plane from TLE"
  },
  {
    "OBJECT_NAME": "STARLINK-3299",
    "OBJECT_ID": "22001AE",
    "EPOCH": "2025-11-11T06:59:23.465184",
    "MEAN_MOTION": 15.08840635,
    "ECCENTRICITY": 0.0001362,
    "INCLINATION": 53.2177,
    "RA_OF_ASC_NODE": 340.6983,
    "ARG_OF_PERICENTER": 88.6521,
    "MEAN_ANOMALY": 271.4628,
    "EPHEMERIS_TYPE": 0,
    "CLASSIFICATION_TYPE": "U",
    "NORAD_CAT_ID": 50831,
    "ELEMENT_SET_NO": 999,
    "REV_AT_EPOCH": 21253,
    "BSTAR": 2.4695e-05,
    "MEAN_MOTION_DOT": 1.05e-06,
    "MEAN_MOTION_DDOT": 0.0,
    "TLE_LINE1": "1 50831U 22001AE  25315.29124381  .00000105  00000+0  24695-4 0  9993",
    "TLE_LINE2": "2 50831  53.2177 340.6983 0001362  88.6521 271.4628 15.08840635212532",
    "COMMENT": "Grouped by shell and plane from TLE"
  },
  {
    "OBJECT_NAME": "STARLINK-3318",
    "OBJECT_ID": "22001AL",
    "EPOCH": "2025-11-11T07:04:40.528128",
    "MEAN_MOTION": 15.08843459,
    "ECCENTRICITY": 0.0001366,
    "INCLINATION": 53.2171,
    "RA_OF_ASC_NODE": 340.6154,
    "ARG_OF_PERICENTER": 89.7717,
    "MEAN_ANOMALY": 270.3432,
    "EPHEMERIS_TYPE": 0,
    "CLASSIFICATION_TYPE": "U",
    "NORAD_CAT_ID": 50837,
    "ELEMENT_SET_NO": 999,
    "REV_AT_EPOCH": 21253,
    "BSTAR": 7.0078e-05,
    "MEAN_MOTION_DOT": 8.28e-06,
    "MEAN_MOTION_DDOT": 0.0,
    "TLE_LINE1": "1 50837U 22001AL  25315.29491352  .00000828  00000+0  70078-4 0  9992",
    "TLE_LINE2": "2 50837  53.2171 340.6154 0001366  89.7717 270.3432 15.08843459212533",
    "COMMENT": "Grouped by shell and plane from TLE"
  },
  {
    "OBJECT_NAME": "STARLINK-4150",
    "OBJECT_ID": "22083C",
    "EPOCH": "2025-11-11T07:17:15.671904",
    "MEAN_MOTION": 15.08841725,
    "ECCENTRICITY": 0.0001558,
    "INCLINATION": 53.2187,
    "RA_OF_ASC_NODE": 345.5749,
    "ARG_OF_PERICENTER": 100.6321,
    "MEAN_ANOMALY": 259.4847,
    "EPHEMERIS_TYPE": 0,
    "CLASSIFICATION_TYPE": "U",
    "NORAD_CAT_ID": 53134,
    "ELEMENT_SET_NO": 999,
    "REV_AT_EPOCH": 18334,
    "BSTAR": 5.1127e-05,
    "MEAN_MOTION_DOT": 5.26e-06,
    "MEAN_MOTION_DDOT": 0.0,
    "TLE_LINE1": "1 53134U 22083C   25315.30365361  .00000526  00000+0  51127-4 0  9996",
    "TLE_LINE2": "2 53134  53.2187 345.5749 0001558 100.6321 259.4847 15.08841725183342",
    "COMMENT": "Grouped by shell and plane from TLE"
  },
  {
    "OBJECT_NAME": "STARLINK-4023",
    "OBJECT_ID": "22083D",
    "EPOCH": "2025-11-11T07:27:51.989760",
    "MEAN_MOTION": 15.08842237,
    "ECCENTRICITY": 0.0001398,
    "INCLINATION": 53.2168,
    "RA_OF_ASC_NODE": 345.5437,
    "ARG_OF_PERICENTER": 93.6085,
    "MEAN_ANOMALY": 266.5067,
    "EPHEMERIS_TYPE": 0,
    "CLASSIFICATION_TYPE": "U",
    "NORAD_CAT_ID": 53135,
    "ELEMENT_SET_NO": 999,
    "REV_AT_EPOCH": 18433,
    "BSTAR": 0.00051178,
    "MEAN_MOTION_DOT": 7.867e-05,
    "MEAN_MOTION_DDOT": 0.0,
    "TLE_LINE1": "1 53135U 22083D   25315.31101840  .00007867  00000+0  51178-3 0  9998",
    "TLE_LINE2": "2 53135  53.2168 345.5437 0001398  93.6085 266.5067 15.08842237184338",
    "COMMENT": "Grouped by shell and plane from TLE"
  },
  {
    "OBJECT_NAME": "STARLINK-4152",
    "OBJECT_ID": "22083E",
    "EPOCH": "2025-11-11T07:22:33.797568",
    "MEAN_MOTION": 15.08839225,
    "ECCENTRICITY": 0.000152,
    "INCLINATION": 53.2182,
    "RA_OF_ASC_NODE": 345.5571,
    "ARG_OF_PERICENTER": 96.8601,
    "MEAN_ANOMALY": 263.2564,
    "EPHEMERIS_TYPE": 0,
    "CLASSIFICATION_TYPE": "U",
    "NORAD_CAT_ID": 53136,
    "ELEMENT_SET_NO": 999,
    "REV_AT_EPOCH": 18433,
    "BSTAR": 0.0,
    "MEAN_MOTION_DOT": -4.09e-06,
    "MEAN_MOTION_DDOT": 0.0,
    "TLE_LINE1": "1 53136U 22083E   25315.30733562 -.00000409  00000+0 -76041-5 0  9995",
    "TLE_LINE2": "2 53136  53.2182 345.5571 0001520  96.8601 263.2564 15.08839225184339",
    "COMMENT": "Grouped by shell and plane from TLE"
  }
]